start=new Date('2022-09-26T00:00:00.000Z').valueOf();
sats=[{"RA_OF_ASC_NODE":"159.5784","CLASSIFICATION_TYPE":"U","TLE_LINE1":"1 52648U 22052BC  22268.77419339 -.00001107  00000-0 -51438-4 0  9995","SEMIMAJOR_AXIS":"6917.879","BSTAR":"-0.00005143800000","APOAPSIS":"540.991","COUNTRY_CODE":"US","DECAY_DATE":null,"ELEMENT_SET_NO":"999","ECCENTRICITY":"0.00018020","EPOCH":"2022-09-25T18:34:50.308896","MEAN_MOTION":"15.08840291","MEAN_ELEMENT_THEORY":"SGP4","REV_AT_EPOCH":"2077","OBJECT_NAME":"STARLINK-3854","OBJECT_TYPE":"PAYLOAD","MEAN_ANOMALY":"315.3833","TLE_LINE2":"2 52648  53.2189 159.5784 0001802  44.7304 315.3833 15.08840291 20777","GP_ID":"213509756","MEAN_MOTION_DDOT":"0.0000000000000","RCS_SIZE":"LARGE","MEAN_MOTION_DOT":"-0.00001107","INCLINATION":"53.2189","TIME_SYSTEM":"UTC","PERIOD":"95.438","CENTER_NAME":"EARTH","SITE":"AFETR","ARG_OF_PERICENTER":"44.7304","LAUNCH_DATE":"2022-05-14","OBJECT_ID":"2022-052BC","NORAD_CAT_ID":"52648","FILE":"3583828","PERIAPSIS":"538.498","REF_FRAME":"TEME","EPHEMERIS_TYPE":"0"},{"MEAN_MOTION_DDOT":"0.0000000000000","TLE_LINE2":"2 52649  53.2190 158.1393 0001642  51.6241 308.4899 15.08829865 21208","GP_ID":"213510769","OBJECT_TYPE":"PAYLOAD","MEAN_ANOMALY":"308.4899","OBJECT_NAME":"STARLINK-3868","REV_AT_EPOCH":"2120","MEAN_ELEMENT_THEORY":"SGP4","ECCENTRICITY":"0.00016420","EPOCH":"2022-09-26T02:17:14.780544","MEAN_MOTION":"15.08829865","ELEMENT_SET_NO":"999","COUNTRY_CODE":"US","DECAY_DATE":null,"TLE_LINE1":"1 52649U 22052BD  22269.09530996 -.00001065  00000-0 -48834-4 0  9994","BSTAR":"-0.00004883400000","SEMIMAJOR_AXIS":"6917.911","APOAPSIS":"540.912","CLASSIFICATION_TYPE":"U","RA_OF_ASC_NODE":"158.1393","EPHEMERIS_TYPE":"0","PERIAPSIS":"538.640","REF_FRAME":"TEME","FILE":"3583860","NORAD_CAT_ID":"52649","ARG_OF_PERICENTER":"51.6241","LAUNCH_DATE":"2022-05-14","OBJECT_ID":"2022-052BD","SITE":"AFETR","CENTER_NAME":"EARTH","PERIOD":"95.438","TIME_SYSTEM":"UTC","INCLINATION":"53.2190","MEAN_MOTION_DOT":"-0.00001065","RCS_SIZE":"LARGE"},{"OBJECT_ID":"2022-052BE","LAUNCH_DATE":"2022-05-14","ARG_OF_PERICENTER":"58.5728","FILE":"3583860","NORAD_CAT_ID":"52650","REF_FRAME":"TEME","PERIAPSIS":"538.765","EPHEMERIS_TYPE":"0","RCS_SIZE":"LARGE","INCLINATION":"53.2164","MEAN_MOTION_DOT":"-0.00000496","TIME_SYSTEM":"UTC","PERIOD":"95.438","CENTER_NAME":"EARTH","SITE":"AFETR","OBJECT_NAME":"STARLINK-3891","REV_AT_EPOCH":"2132","MEAN_ANOMALY":"301.5405","OBJECT_TYPE":"PAYLOAD","TLE_LINE2":"2 52650  53.2164 148.6928 0001448  58.5728 301.5405 15.08833013 21329","GP_ID":"213510480","MEAN_MOTION_DDOT":"0.0000000000000","RA_OF_ASC_NODE":"148.6928","CLASSIFICATION_TYPE":"U","APOAPSIS":"540.768","SEMIMAJOR_AXIS":"6917.902","TLE_LINE1":"1 52650U 22052BE  22268.97111097 -.00000496  00000-0 -13095-4 0  9997","BSTAR":"-0.00001309500000","DECAY_DATE":null,"COUNTRY_CODE":"US","ELEMENT_SET_NO":"999","MEAN_MOTION":"15.08833013","ECCENTRICITY":"0.00014480","EPOCH":"2022-09-25T23:18:23.987808","MEAN_ELEMENT_THEORY":"SGP4"},{"OBJECT_TYPE":"PAYLOAD","MEAN_ANOMALY":"295.3747","OBJECT_NAME":"STARLINK-4004","REV_AT_EPOCH":"2074","TLE_LINE2":"2 52656  53.2175  55.0120 0001727  64.7424 295.3747 15.08848606 20742","GP_ID":"213509996","MEAN_MOTION_DDOT":"0.0000000000000","TLE_LINE1":"1 52656U 22053A   22268.67896497  .00000864  00000-0  72355-4 0  9996","SEMIMAJOR_AXIS":"6917.854","BSTAR":"0.00007235500000","APOAPSIS":"540.914","COUNTRY_CODE":"US","DECAY_DATE":null,"RA_OF_ASC_NODE":"55.0120","CLASSIFICATION_TYPE":"U","MEAN_ELEMENT_THEORY":"SGP4","ELEMENT_SET_NO":"999","ECCENTRICITY":"0.00017270","EPOCH":"2022-09-25T16:17:42.573408","MEAN_MOTION":"15.08848606","FILE":"3583828","NORAD_CAT_ID":"52656","ARG_OF_PERICENTER":"64.7424","OBJECT_ID":"2022-053A","LAUNCH_DATE":"2022-05-18","EPHEMERIS_TYPE":"0","REF_FRAME":"TEME","PERIAPSIS":"538.524","MEAN_MOTION_DOT":"0.00000864","INCLINATION":"53.2175","TIME_SYSTEM":"UTC","RCS_SIZE":"LARGE","CENTER_NAME":"EARTH","SITE":"AFETR","PERIOD":"95.437"},{"REF_FRAME":"TEME","PERIAPSIS":"538.726","EPHEMERIS_TYPE":"0","ARG_OF_PERICENTER":"67.8409","LAUNCH_DATE":"2022-05-18","OBJECT_ID":"2022-053B","NORAD_CAT_ID":"52657","FILE":"3583828","PERIOD":"95.437","SITE":"AFETR","CENTER_NAME":"EARTH","RCS_SIZE":"LARGE","TIME_SYSTEM":"UTC","MEAN_MOTION_DOT":"-0.00000021","INCLINATION":"53.2184","MEAN_MOTION_DDOT":"0.0000000000000","TLE_LINE2":"2 52657  53.2184  54.9789 0001468  67.8409 292.2739 15.08841315 21042","GP_ID":"213509029","OBJECT_NAME":"STARLINK-4084","REV_AT_EPOCH":"2104","OBJECT_TYPE":"PAYLOAD","MEAN_ANOMALY":"292.2739","EPOCH":"2022-09-25T16:28:18.656256","ECCENTRICITY":"0.00014680","MEAN_MOTION":"15.08841315","ELEMENT_SET_NO":"999","MEAN_ELEMENT_THEORY":"SGP4","CLASSIFICATION_TYPE":"U","RA_OF_ASC_NODE":"54.9789","DECAY_DATE":null,"COUNTRY_CODE":"US","BSTAR":"0.00001674700000","TLE_LINE1":"1 52657U 22053B   22268.68632704 -.00000021  00000-0  16747-4 0  9996","SEMIMAJOR_AXIS":"6917.876","APOAPSIS":"540.757"},{"TLE_LINE2":"2 52658  53.2184  54.9937 0001760  51.5494 308.5655 15.08841449 20862","GP_ID":"213509179","MEAN_MOTION_DDOT":"0.0000000000000","MEAN_ANOMALY":"308.5655","OBJECT_TYPE":"PAYLOAD","REV_AT_EPOCH":"2086","OBJECT_NAME":"STARLINK-4082","MEAN_ELEMENT_THEORY":"SGP4","ELEMENT_SET_NO":"999","MEAN_MOTION":"15.08841449","EPOCH":"2022-09-25T16:23:00.974688","ECCENTRICITY":"0.00017600","APOAPSIS":"540.959","BSTAR":"0.00001061700000","TLE_LINE1":"1 52658U 22053C   22268.68265017 -.00000119  00000-0  10617-4 0  9994","SEMIMAJOR_AXIS":"6917.876","DECAY_DATE":null,"COUNTRY_CODE":"US","RA_OF_ASC_NODE":"54.9937","CLASSIFICATION_TYPE":"U","EPHEMERIS_TYPE":"0","PERIAPSIS":"538.523","REF_FRAME":"TEME","FILE":"3583828","NORAD_CAT_ID":"52658","OBJECT_ID":"2022-053C","LAUNCH_DATE":"2022-05-18","ARG_OF_PERICENTER":"51.5494","CENTER_NAME":"EARTH","SITE":"AFETR","PERIOD":"95.437","INCLINATION":"53.2184","MEAN_MOTION_DOT":"-0.00000119","TIME_SYSTEM":"UTC","RCS_SIZE":"LARGE"},{"MEAN_ELEMENT_THEORY":"SGP4","MEAN_MOTION":"15.08847184","ECCENTRICITY":"0.00015320","EPOCH":"2022-09-25T16:24:23.961024","ELEMENT_SET_NO":"999","DECAY_DATE":null,"COUNTRY_CODE":"US","APOAPSIS":"540.783","SEMIMAJOR_AXIS":"6917.858","TLE_LINE1":"1 52659U 22053D   22268.68361066  .00000516  00000-0  50490-4 0  9999","BSTAR":"0.00005049000000","CLASSIFICATION_TYPE":"U","RA_OF_ASC_NODE":"54.9863","MEAN_MOTION_DDOT":"0.0000000000000","TLE_LINE2":"2 52659  53.2170  54.9863 0001532  56.4576 303.6562 15.08847184 20852","GP_ID":"213508868","MEAN_ANOMALY":"303.6562","OBJECT_TYPE":"PAYLOAD","OBJECT_NAME":"STARLINK-3960","REV_AT_EPOCH":"2085","SITE":"AFETR","CENTER_NAME":"EARTH","PERIOD":"95.437","TIME_SYSTEM":"UTC","MEAN_MOTION_DOT":"0.00000516","INCLINATION":"53.2170","RCS_SIZE":"MEDIUM","EPHEMERIS_TYPE":"0","REF_FRAME":"TEME","PERIAPSIS":"538.664","NORAD_CAT_ID":"52659","FILE":"3583828","LAUNCH_DATE":"2022-05-18","OBJECT_ID":"2022-053D","ARG_OF_PERICENTER":"56.4576"},{"SITE":"AFETR","CENTER_NAME":"EARTH","PERIOD":"95.437","TIME_SYSTEM":"UTC","INCLINATION":"53.2171","MEAN_MOTION_DOT":"0.00002387","RCS_SIZE":"LARGE","EPHEMERIS_TYPE":"0","REF_FRAME":"TEME","PERIAPSIS":"538.668","FILE":"3583828","NORAD_CAT_ID":"52660","OBJECT_ID":"2022-053E","LAUNCH_DATE":"2022-05-18","ARG_OF_PERICENTER":"59.1550","MEAN_ELEMENT_THEORY":"SGP4","MEAN_MOTION":"15.08843523","EPOCH":"2022-09-25T16:12:24.643008","ECCENTRICITY":"0.00015420","ELEMENT_SET_NO":"999","COUNTRY_CODE":"US","DECAY_DATE":null,"APOAPSIS":"540.801","TLE_LINE1":"1 52660U 22053E   22268.67528522  .00002387  00000-0  16801-3 0  9997","BSTAR":"0.00016801000000","SEMIMAJOR_AXIS":"6917.870","CLASSIFICATION_TYPE":"U","RA_OF_ASC_NODE":"55.0248","MEAN_MOTION_DDOT":"0.0000000000000","GP_ID":"213509757","TLE_LINE2":"2 52660  53.2171  55.0248 0001542  59.1550 300.9594 15.08843523 20743","MEAN_ANOMALY":"300.9594","OBJECT_TYPE":"PAYLOAD","OBJECT_NAME":"STARLINK-4081","REV_AT_EPOCH":"2074"},{"MEAN_ELEMENT_THEORY":"SGP4","ELEMENT_SET_NO":"999","EPOCH":"2022-09-25T16:07:06.784320","ECCENTRICITY":"0.00018250","MEAN_MOTION":"15.08842501","TLE_LINE1":"1 52661U 22053F   22268.67160630  .00001419  00000-0  10725-3 0  9994","BSTAR":"0.00010725000000","SEMIMAJOR_AXIS":"6917.873","APOAPSIS":"541.000","DECAY_DATE":null,"COUNTRY_CODE":"US","RA_OF_ASC_NODE":"55.0444","CLASSIFICATION_TYPE":"U","GP_ID":"213509445","TLE_LINE2":"2 52661  53.2170  55.0444 0001825  58.1698 301.9472 15.08842501 20670","MEAN_MOTION_DDOT":"0.0000000000000","OBJECT_TYPE":"PAYLOAD","MEAN_ANOMALY":"301.9472","REV_AT_EPOCH":"2067","OBJECT_NAME":"STARLINK-4042","CENTER_NAME":"EARTH","SITE":"AFETR","PERIOD":"95.437","INCLINATION":"53.2170","MEAN_MOTION_DOT":"0.00001419","TIME_SYSTEM":"UTC","RCS_SIZE":"LARGE","EPHEMERIS_TYPE":"0","PERIAPSIS":"538.475","REF_FRAME":"TEME","NORAD_CAT_ID":"52661","FILE":"3583828","ARG_OF_PERICENTER":"58.1698","LAUNCH_DATE":"2022-05-18","OBJECT_ID":"2022-053F"},{"OBJECT_NAME":"STARLINK-4044","REV_AT_EPOCH":"2069","OBJECT_TYPE":"PAYLOAD","MEAN_ANOMALY":"312.3841","MEAN_MOTION_DDOT":"0.0000000000000","TLE_LINE2":"2 52662  53.2183  54.5015 0001731  47.7297 312.3841 15.08844996 20696","GP_ID":"213509595","CLASSIFICATION_TYPE":"U","RA_OF_ASC_NODE":"54.5015","COUNTRY_CODE":"US","DECAY_DATE":null,"SEMIMAJOR_AXIS":"6917.865","TLE_LINE1":"1 52662U 22053G   22268.79672940  .00002332  00000-0  16455-3 0  9991","BSTAR":"0.00016455000000","APOAPSIS":"540.928","ECCENTRICITY":"0.00017310","EPOCH":"2022-09-25T19:07:17.420160","MEAN_MOTION":"15.08844996","ELEMENT_SET_NO":"999","MEAN_ELEMENT_THEORY":"SGP4","ARG_OF_PERICENTER":"47.7297","OBJECT_ID":"2022-053G","LAUNCH_DATE":"2022-05-18","NORAD_CAT_ID":"52662","FILE":"3583828","REF_FRAME":"TEME","PERIAPSIS":"538.533","EPHEMERIS_TYPE":"0","RCS_SIZE":"LARGE","TIME_SYSTEM":"UTC","INCLINATION":"53.2183","MEAN_MOTION_DOT":"0.00002332","PERIOD":"95.437","SITE":"AFETR","CENTER_NAME":"EARTH"}];
